OBJECT_NAME,OBJECT_ID,EPOCH,MEAN_MOTION,ECCENTRICITY,INCLINATION,RA_OF_ASC_NODE,ARG_OF_PERICENTER,MEAN_ANOMALY,EPHEMERIS_TYPE,CLASSIFICATION_TYPE,NORAD_CAT_ID,ELEMENT_SET_NO,REV_AT_EPOCH,BSTAR,MEAN_MOTION_DOT,MEAN_MOTION_DDOT
STARLINK-34060,2025-092M,2026-07-17T21:53:33.560736,15.27586394,.00007089,42.9988,156.8412,242.3483,117.7296,0,U,63815,999,6847,.36108145E-3,.9689E-4,0
STARLINK-34048,2025-092N,2026-07-17T21:24:09.868896,15.27579545,.00012639,43.0004,157.5541,268.5373,91.5334,0,U,63816,999,6857,.35732787E-3,.9583E-4,0
STARLINK-33959,2025-092P,2026-07-17T21:36:54.546912,15.27585022,.00008258,42.9984,156.7596,298.3022,61.7746,0,U,63817,999,6858,.24772365E-3,.6562E-4,0
STARLINK-34058,2025-092Q,2026-07-17T21:46:07.995072,15.27596056,.00002468,42.9986,156.8084,238.6953,121.3874,0,U,63818,999,6858,-.23299345E-3,-.667E-4,0
STARLINK-34055,2025-092R,2026-07-17T22:00:01.999584,15.38078531,.00081974,43.0000,154.7045,163.2127,10.6816,0,U,63819,999,587,.14432988E-2,.55472E-3,0
STARLINK-33794,2025-092S,2026-07-17T22:43:31.120608,15.27585505,.00015245,43.0021,157.1069,263.2723,96.7955,0,U,63820,999,6853,.397809E-3,.10702E-3,0
STARLINK-34047,2025-092T,2026-07-17T22:37:57.816192,15.27585629,.00014263,43.0025,157.0766,269.2489,90.8199,0,U,63821,999,6858,.34757812E-3,.9316E-4,0
STARLINK-34094,2025-092U,2026-07-17T21:19:18.565248,15.27587404,.00009358,42.9987,154.0415,332.8446,27.2356,0,U,63822,999,6861,.27341208E-3,.7271E-4,0
STARLINK-34043,2025-092V,2026-07-17T21:22:47.656704,15.27583890,.00009996,43.0003,153.1887,265.7239,94.3498,0,U,63823,999,6857,.23511226E-3,.6214E-4,0
STARLINK-34025,2025-092W,2026-07-17T21:44:18.667104,15.27588748,.00012498,43.0002,156.7907,272.7898,87.2810,0,U,63824,999,6847,.31870667E-3,.8521E-4,0
STARLINK-33874,2025-092X,2026-07-17T22:30:34.616160,15.27598893,.00010698,43.0025,157.0412,290.0457,70.0279,0,U,63825,999,6858,.32453207E-3,.8684E-4,0
STARLINK-33781,2025-092Y,2026-07-17T21:22:19.009920,15.27590325,.00011686,42.9979,157.5443,338.9881,21.0923,0,U,63826,999,6857,.33637899E-3,.9009E-4,0
STARLINK-33891,2025-092Z,2026-07-17T21:31:32.946240,15.27603631,.00014902,43.0010,157.5855,268.5321,91.5360,0,U,63827,999,6846,.39595724E-3,.10657E-3,0
STARLINK-33903,2025-092AA,2026-07-17T22:23:09.873024,15.27584162,.00003273,42.9996,156.9948,247.8003,112.2814,0,U,63828,999,6858,.52496459E-3,.14214E-3,0
STARLINK-33889,2025-092AB,2026-07-17T22:02:48.623712,15.27582974,.00010704,43.0001,156.8899,255.6267,104.4466,0,U,63829,999,6847,.32272636E-3,.863E-4,0
STARLINK-33984,2025-092AC,2026-07-17T22:13:56.289216,15.27580022,.0000871,43.0013,156.9425,266.4584,93.6168,0,U,63830,999,6853,.3519757E-3,.9436E-4,0
STARLINK-33940,2025-092AD,2026-07-17T22:28:43.596480,15.27601784,.00014691,43.0026,157.0335,258.7421,101.3265,0,U,63831,999,6858,.30018829E-3,.8013E-4,0
STARLINK-33978,2025-092AE,2026-07-17T22:06:30.849696,15.27575940,.000089,43.0006,156.9088,243.4801,116.5960,0,U,63832,999,6858,.37260237E-3,.10004E-3,0
STARLINK-34018,2025-093A,2026-07-17T15:09:40.409280,15.27584604,.0001999,43.0029,64.1933,282.9901,77.0728,0,U,63836,999,6784,.31387E-3,.8386E-4,0
STARLINK-34053,2025-093B,2026-07-17T22:56:45.271392,15.27592657,.00018104,43.0024,62.3221,277.5016,82.5630,0,U,63837,999,6783,.24875046E-3,.6592E-4,0
STARLINK-34042,2025-093C,2026-07-17T22:05:38.110272,15.27588619,.0001261,43.0030,58.5903,258.3321,101.7389,0,U,63838,999,6793,.33283614E-3,.891E-4,0
STARLINK-34040,2025-093D,2026-07-17T16:21:37.582272,15.27581117,.00012676,43.0024,63.7042,269.8517,90.2190,0,U,63839,999,6785,.26403611E-3,.7011E-4,0
STARLINK-33990,2025-093E,2026-07-17T14:51:09.721728,15.27587504,.0000571,43.0010,64.0810,300.8440,59.2356,0,U,63840,999,6762,.22805E-3,.602E-4,0
STARLINK-34056,2025-093F,2026-07-17T23:09:41.892480,15.27591542,.00018489,43.0013,62.3870,256.7341,103.3305,0,U,63841,999,6767,.46070181E-3,.12441E-3,0
STARLINK-34026,2025-093G,2026-07-17T16:54:55.943424,15.27579432,.0001213,43.0000,63.8745,260.4615,99.6100,0,U,63842,999,6763,.28827017E-3,.7679E-4,0
STARLINK-33777,2025-093H,2026-07-17T16:01:15.974400,15.27581259,.00010486,43.0003,63.5930,269.7036,90.3696,0,U,63843,999,6785,.16158183E-3,.4187E-4,0
STARLINK-34041,2025-093J,2026-07-17T15:28:10.594848,15.27589855,.0000636,42.9943,64.2838,6.4382,353.6478,0,U,63844,999,6784,.25209E-3,.6684E-4,0
STARLINK-34011,2025-093K,2026-07-17T21:55:52.803840,15.27610549,.00009592,42.9983,62.8711,275.0265,85.0478,0,U,63845,999,6766,.46410936E-3,.12543E-3,0
STARLINK-34044,2025-093L,2026-07-17T22:19:44.491584,15.27590978,.00006951,42.9993,62.1289,242.0551,118.0230,0,U,63846,999,6767,.37441108E-3,.10059E-3,0
STARLINK-34037,2025-093M,2026-07-17T16:17:55.675968,15.27564202,.0001654,43.0035,63.6851,286.2175,73.8495,0,U,63847,999,6785,.3099706E-3,.8273E-4,0
