STARLINK-34060          
1 63815U 25092M   26198.91219399  .00009689  00000+0  36108-3 0  9992
2 63815  42.9988 156.8412 0000708 242.3483 117.7296 15.27586394 68471
STARLINK-34048          
1 63816U 25092N   26198.89178089  .00009583  00000+0  35733-3 0  9996
2 63816  43.0004 157.5541 0001263 268.5373  91.5334 15.27579545 68572
STARLINK-33959          
1 63817U 25092P   26198.90063133  .00006562  00000+0  24772-3 0  9997
2 63817  42.9984 156.7596 0000825 298.3022  61.7746 15.27585022 68588
STARLINK-34058          
1 63818U 25092Q   26198.90703698 -.00006670  00000+0 -23299-3 0  9990
2 63818  42.9986 156.8084 0000246 238.6953 121.3874 15.27596056 68585
STARLINK-34055          
1 63819U 25092R   26198.91668981  .00055472  00000+0  14433-2 0  9998
2 63819  43.0000 154.7045 0008197 163.2127  10.6816 15.38078531  5872
STARLINK-33794          
1 63820U 25092S   26198.94688797  .00010702  00000+0  39781-3 0  9991
2 63820  43.0021 157.1069 0001524 263.2723  96.7955 15.27585505 68533
STARLINK-34047          
1 63821U 25092T   26198.94303028  .00009316  00000+0  34758-3 0  9991
2 63821  43.0025 157.0766 0001426 269.2489  90.8199 15.27585629 68584
STARLINK-34094          
1 63822U 25092U   26198.88840932  .00007271  00000+0  27341-3 0  9993
2 63822  42.9987 154.0415 0000935 332.8446  27.2356 15.27587404 68618
STARLINK-34043          
1 63823U 25092V   26198.89082936  .00006214  00000+0  23511-3 0  9998
2 63823  43.0003 153.1887 0000999 265.7239  94.3498 15.27583890 68579
STARLINK-34025          
1 63824U 25092W   26198.90577161  .00008521  00000+0  31871-3 0  9991
2 63824  43.0002 156.7907 0001249 272.7898  87.2810 15.27588748 68474
STARLINK-33874          
1 63825U 25092X   26198.93790065  .00008684  00000+0  32453-3 0  9992
2 63825  43.0025 157.0412 0001069 290.0457  70.0279 15.27598893 68582
STARLINK-33781          
1 63826U 25092Y   26198.89049780  .00009009  00000+0  33638-3 0  9997
2 63826  42.9979 157.5443 0001168 338.9881  21.0923 15.27590325 68574
STARLINK-33891          
1 63827U 25092Z   26198.89690910  .00010657  00000+0  39596-3 0  9995
2 63827  43.0010 157.5855 0001490 268.5321  91.5360 15.27603631 68465
STARLINK-33903          
1 63828U 25092AA  26198.93275316  .00014214  00000+0  52496-3 0  9997
2 63828  42.9996 156.9948 0000327 247.8003 112.2814 15.27584162 68583
STARLINK-33889          
1 63829U 25092AB  26198.91861833  .00008630  00000+0  32273-3 0  9997
2 63829  43.0001 156.8899 0001070 255.6267 104.4466 15.27582974 68475
STARLINK-33984          
1 63830U 25092AC  26198.92634594  .00009436  00000+0  35198-3 0  9996
2 63830  43.0013 156.9425 0000871 266.4584  93.6168 15.27580022 68533
STARLINK-33940          
1 63831U 25092AD  26198.93661570  .00008013  00000+0  30019-3 0  9999
2 63831  43.0026 157.0335 0001469 258.7421 101.3265 15.27601784 68587
STARLINK-33978          
1 63832U 25092AE  26198.92119039  .00010004  00000+0  37260-3 0  9995
2 63832  43.0006 156.9088 0000890 243.4801 116.5960 15.27575940 68583
STARLINK-34018          
1 63836U 25093A   26198.63171770  .00008386  00000+0  31387-3 0  9992
2 63836  43.0029  64.1933 0001999 282.9901  77.0728 15.27584604 67849
STARLINK-34053          
1 63837U 25093B   26198.95607953  .00006592  00000+0  24875-3 0  9996
2 63837  43.0024  62.3221 0001810 277.5016  82.5630 15.27592657 67833
STARLINK-34042          
1 63838U 25093C   26198.92057998  .00008910  00000+0  33284-3 0  9992
2 63838  43.0030  58.5903 0001261 258.3321 101.7389 15.27588619 67930
STARLINK-34040          
1 63839U 25093D   26198.68168498  .00007011  00000+0  26404-3 0  9991
2 63839  43.0024  63.7042 0001267 269.8517  90.2190 15.27581117 67855
STARLINK-33990          
1 63840U 25093E   26198.61886252  .00006020  00000+0  22805-3 0  9991
2 63840  43.0010  64.0810 0000571 300.8440  59.2356 15.27587504 67627
STARLINK-34056          
1 63841U 25093F   26198.96506820  .00012441  00000+0  46070-3 0  9994
2 63841  43.0013  62.3870 0001848 256.7341 103.3305 15.27591542 67672
STARLINK-34026          
1 63842U 25093G   26198.70481416  .00007679  00000+0  28827-3 0  9997
2 63842  43.0000  63.8745 0001213 260.4615  99.6100 15.27579432 67638
STARLINK-33777          
1 63843U 25093H   26198.66754600  .00004187  00000+0  16158-3 0  9996
2 63843  43.0003  63.5930 0001048 269.7036  90.3696 15.27581259 67852
STARLINK-34041          
1 63844U 25093J   26198.64456707  .00006684  00000+0  25209-3 0  9993
2 63844  42.9943  64.2838 0000636   6.4382 353.6478 15.27589855 67843
STARLINK-34011          
1 63845U 25093K   26198.91380560  .00012543  00000+0  46411-3 0  9996
2 63845  42.9983  62.8711 0000959 275.0265  85.0478 15.27610549 67665
STARLINK-34044          
1 63846U 25093L   26198.93037606  .00010059  00000+0  37441-3 0  9992
2 63846  42.9993  62.1289 0000695 242.0551 118.0230 15.27590978 67676
STARLINK-34037          
1 63847U 25093M   26198.67911662  .00008273  00000+0  30997-3 0  9991
2 63847  43.0035  63.6851 0001654 286.2175  73.8495 15.27564202 67857
